{
    "links": {
        "self": "http://www.neowsapp.com/rest/v1/neo/3553587?api_key=iIulBulltgU6a56xZRHN4H3l9WmuAYTsLGpBGhQ2"
    },
    "id": "3553587",
    "neo_reference_id": "3553587",
    "name": "(2010 XP56)",
    "designation": "2010 XP56",
    "nasa_jpl_url": "http://ssd.jpl.nasa.gov/sbdb.cgi?sstr=3553587",
    "absolute_magnitude_h": 23.3,
    "estimated_diameter": {
        "kilometers": {
            "estimated_diameter_min": 0.058150704,
            "estimated_diameter_max": 0.130028927
        },
        "meters": {
            "estimated_diameter_min": 58.1507039646,
            "estimated_diameter_max": 130.0289270043
        },
        "miles": {
            "estimated_diameter_min": 0.0361331611,
            "estimated_diameter_max": 0.0807962044
        },
        "feet": {
            "estimated_diameter_min": 190.7831555951,
            "estimated_diameter_max": 426.6041048727
        }
    },
    "is_potentially_hazardous_asteroid": false,
    "close_approach_data": [
        {
            "close_approach_date": "2010-11-26",
            "close_approach_date_full": "2010-Nov-26 19:44",
            "epoch_date_close_approach": 1290800640000,
            "relative_velocity": {
                "kilometers_per_second": "9.4342467533",
                "kilometers_per_hour": "33963.2883120237",
                "miles_per_hour": "21103.4665625461"
            },
            "miss_distance": {
                "astronomical": "0.2232632942",
                "lunar": "86.8494214438",
                "kilometers": "33399713.261503354",
                "miles": "20753619.4625761252"
            },
            "orbiting_body": "Earth"
        }
    ],
    "orbital_data": {
        "orbit_id": "5",
        "orbit_determination_date": "2017-04-06 08:55:13",
        "first_observation_date": "2010-12-11",
        "last_observation_date": "2010-12-12",
        "data_arc_in_days": 1,
        "observations_used": 12,
        "orbit_uncertainty": "9",
        "minimum_orbit_intersection": ".214141",
        "jupiter_tisserand_invariant": "4.518",
        "epoch_osculation": "2455542.5",
        "eccentricity": ".1930794256261199",
        "semi_major_axis": "1.476249441825691",
        "inclination": "18.1273810964158",
        "ascending_node_longitude": "247.7475813046739",
        "orbital_period": "655.1459286680309",
        "perihelion_distance": "1.191216047517106",
        "perihelion_argument": "158.0758773277804",
        "aphelion_distance": "1.761282836134275",
        "perihelion_time": "2455501.670890416172",
        "mean_anomaly": "22.4354282107215",
        "mean_motion": ".5494958973978691",
        "equinox": "J2000",
        "orbit_class": {
            "orbit_class_type": "AMO",
            "orbit_class_description": "Near-Earth asteroid orbits similar to that of 1221 Amor",
            "orbit_class_range": "1.017 AU < q (perihelion) < 1.3 AU"
        }
    },
    "is_sentry_object": false
}